BEIDOU 3 (C01)          
1 36287U 10001A   21338.26333264 -.00000269  00000+0  00000+0 0  9990
2 36287   1.7606  44.0555 0001051  48.3440 216.1172  1.00269452 43557
BEIDOU 5 (C06)          
1 36828U 10036A   21338.28147100 -.00000024  00000+0  00000+0 0  9992
2 36828  54.1803 178.0264 0023614 174.5654 286.9798  1.00254579 41621
BEIDOU 6 (C04)          
1 37210U 10057A   21338.26725745 -.00000099  00000+0  00000+0 0  9998
2 37210   0.8224  45.2093 0007287 160.7801 123.6281  1.00270925 40677
BEIDOU 7 (C07)          
1 37256U 10068A   21338.28440039 -.00000217  00000+0  00000+0 0  9994
2 37256  50.5633 291.9807 0016146 190.9562 159.4049  1.00254964 40189
BEIDOU 8 (C08)          
1 37384U 11013A   21337.66409476 -.00000202  00000+0  00000+0 0  9992
2 37384  60.0113  56.2107 0019456 187.5116 172.9286  1.00262094 39060
BEIDOU 9 (C09)          
1 37763U 11038A   21338.28620015  .00000010  00000+0  00000+0 0  9999
2 37763  54.4670 180.4938 0086123 225.4925 226.0629  1.00275276 38048
BEIDOU 10 (C10)         
1 37948U 11073A   21338.29060640 -.00000161  00000+0  00000+0 0  9994
2 37948  50.6758 291.6052 0077472 218.9584 120.4796  1.00255213 36796
BEIDOU 11 (C05)         
1 38091U 12008A   21338.17532936  .00000069  00000+0  00000+0 0  9998
2 38091   1.9251  71.1570 0004527 266.4287 217.4533  1.00270985 35875
BEIDOU 12 (C11)         
1 38250U 12018A   21338.23710662 -.00000070  00000+0  00000+0 0  9990
2 38250  56.7360   0.0092 0024844 249.6718 116.9338  1.86234473 65456
BEIDOU 13 (C12)         
1 38251U 12018B   21338.15319089 -.00000070  00000+0  00000+0 0  9990
2 38251  56.6551 359.3492 0015724 251.7133 102.9325  1.86234234 65449
BEIDOU 15 (C14)         
1 38775U 12050B   21338.26470396  .00000027  00000+0  00000+0 0  9999
2 38775  55.2922 118.2596 0011464 327.6384 298.8098  1.86231280 62821
BEIDOU 16 (C02)         
1 38953U 12059A   21338.03677111 -.00000163  00000+0  00000+0 0  9997
2 38953   1.5052  84.3571 0010432 275.1883 170.8371  1.00270813 33448
BEIDOU 17 (C31)         
1 40549U 15019A   21338.39841020 -.00000189  00000+0  00000+0 0  9999
2 40549  52.2187 315.0202 0037088 191.4326 166.0841  1.00284931 24475
BEIDOU 18 (C57)         
1 40748U 15037A   21337.49932554 -.00000068  00000+0  00000+0 0  9999
2 40748  55.9142 358.3563 0002434 321.8193 224.1617  1.86233453 43267
BEIDOU 19 (C58)         
1 40749U 15037B   21338.18505186 -.00000072  00000+0  00000+0 0  9999
2 40749  55.9179 358.3232 0005732 292.9192 128.1374  1.86232198 43271
BEIDOU 20 (C18)         
1 40938U 15053A   21338.28922677 -.00000151  00000+0  00000+0 0  9994
2 40938  51.8063 278.1173 0043329 196.3673 157.2770  1.00289522 22747
BEIDOU IGSO-6 (C13)     
1 41434U 16021A   21337.68048431 -.00000183  00000+0  00000+0 0  9997
2 41434  57.8145  54.8731 0044828 213.5023 145.2204  1.00280053 20861
BEIDOU-2 G7 (C03)       
1 41586U 16037A   21338.24091779 -.00000342  00000+0  00000+0 0  9995
2 41586   1.5479  65.7263 0008017   3.9594 200.8237  1.00275715 20177
BEIDOU-3 M1 (C19)       
1 43001U 17069A   21338.06024463  .00000028  00000+0  00000+0 0  9991
2 43001  55.4460 118.2408 0007200 287.0823 358.3892  1.86231705 27759
BEIDOU-3 M2 (C20)       
1 43002U 17069B   21337.61751071  .00000033  00000+0  00000+0 0  9990
2 43002  55.4453 118.2913 0005630 319.4670  72.4082  1.86231398 27740
BEIDOU-3 M3 (C27)       
1 43107U 18003A   21338.33233110 -.00000074  00000+0  00000+0 0  9990
2 43107  55.3608 359.3316 0003255  46.0919 270.9984  1.86232598 26515
BEIDOU-3 M4 (C28)       
1 43108U 18003B   21338.26439671 -.00000074  00000+0  00000+0 0  9993
2 43108  55.3548 359.3241 0004238 246.6571  69.8682  1.86230992 26516
BEIDOU-3 M5 (C21)       
1 43207U 18018A   21337.70210571  .00000032  00000+0  00000+0 0  9996
2 43207  55.4048 118.3733 0003905   1.1174 358.8482  1.86231594 25892
BEIDOU-3 M6 (C22)       
1 43208U 18018B   21337.23188136  .00000037  00000+0  00000+0 0  9991
2 43208  55.4040 118.3940 0005269 303.4374  56.4798  1.86231653 25886
BEIDOU-3 M7 (C29)       
1 43245U 18029A   21338.08355521 -.00000072  00000+0  00000+0 0  9992
2 43245  55.2834 357.1215 0001319 254.9839 165.6198  1.86232705 25057
BEIDOU-3 M8 (C30)       
1 43246U 18029B   21338.19077109 -.00000073  00000+0  10000-3 0  9994
2 43246  55.2817 357.1480 0003782 333.0791 205.7781  1.86233030 25040
BEIDOU IGSO-7 (C16)     
1 43539U 18057A   21337.97100852 -.00000035  00000+0  00000+0 0  9990
2 43539  55.0612 177.4411 0040135 221.2533 137.3665  1.00269974 12542
BEIDOU-3 M9 (C23)       
1 43581U 18062A   21338.41884287  .00000040  00000+0  00000+0 0  9999
2 43581  54.3393 238.7682 0004347 297.0468 245.1719  1.86231959 22793
BEIDOU-3 M10 (C24)      
1 43582U 18062B   21338.26243022  .00000040  00000+0  00000+0 0  9999
2 43582  54.3386 238.7631 0006383 359.2602 169.6579  1.86232461 22796
BEIDOU-3 M11 (C25)      
1 43602U 18067A   21338.33847124  .00000043  00000+0  00000+0 0  9991
2 43602  54.4174 237.3579 0007649   3.0187 258.6860  1.86231592 22289
BEIDOU-3 M12 (C26)      
1 43603U 18067B   21338.47089313  .00000042  00000+0  00000+0 0  9994
2 43603  54.4141 237.3204 0004889 353.5642 267.3420  1.86231518 22301
BEIDOU-3 M13 (C32)      
1 43622U 18072A   21337.92560120  .00000029  00000+0  00000+0 0  9995
2 43622  55.3708 117.9280 0004071 277.1382   8.0596  1.86231627 21802
BEIDOU-3 M14 (C33)      
1 43623U 18072B   21338.55692242  .00000024  00000+0  00000+0 0  9992
2 43623  55.3731 117.8985 0002252 326.3702 112.3322  1.86231629 21822
BEIDOU-3 M15 (C34)      
1 43647U 18078A   21337.04716575 -.00000067  00000+0  10000-3 0  9996
2 43647  55.1784 357.3329 0006141 346.1107  55.6472  1.86232819 21307
BEIDOU-3 M16 (C35)      
1 43648U 18078B   21338.21100554 -.00000073  00000+0  00000+0 0  9993
2 43648  55.1734 357.3001 0003704 351.8305  18.3813  1.86232399 21347
BEIDOU-3 G1 (C59)       
1 43683U 18085A   21338.19146476 -.00000264  00000+0  00000+0 0  9992
2 43683   0.8619 201.8315 0004703  46.6281  33.7034  1.00267804 11449
BEIDOU-3 M17 (C36)      
1 43706U 18093A   21337.81158796  .00000040  00000+0  00000+0 0  9994
2 43706  54.4193 238.6607 0009050 283.9675  76.0034  1.86231632 20693
BEIDOU-3 M18 (C37)      
1 43707U 18093B   21338.07269323  .00000040  00000+0  00000+0 0  9993
2 43707  54.4207 238.6412 0008692 307.2599 318.8038  1.86232293 20684
BEIDOU-3 IGSO-1 (C38)   
1 44204U 19023A   21338.39849860 -.00000239  00000+0  00000+0 0  9996
2 44204  56.2728  55.0788 0023265 190.1212  90.6518  1.00269865  9750
BEIDOU-2 G8             
1 44231U 19027A   21338.26420481 -.00000234  00000+0  00000+0 0  9995
2 44231   0.4241  57.4208 0006572 155.0433 100.5239  1.00270731  9464
BEIDOU-3 IGSO-2 (C39)   
1 44337U 19035A   21337.95813152 -.00000038  00000+0  00000+0 0  9999
2 44337  55.0983 173.4741 0020552 176.7767 186.2693  1.00260362  9098
BEIDOU-3 M23 (C45)      
1 44542U 19061A   21338.47281859  .00000041  00000+0  22571+1 0  9998
2 44542  54.6454 238.7400 0009226 337.7607 149.0899  1.86231699 14959
BEIDOU-3 M24 (C46)      
1 44543U 19061B   21338.15099544  .00000041  00000+0  10000-3 0  9999
2 44543  54.6439 238.7226 0006444 332.7357 209.3984  1.86231867 14946
BEIDOU-3 IGSO-3         
1 44709U 19073A   21338.27479924 -.00000208  00000+0  00000+0 0  9994
2 44709  57.5783 298.4050 0018980 187.1922 166.2182  1.00266209  7846
BEIDOU-3 M21            
1 44793U 19078A   21338.12452466 -.00000073  00000+0  10000-3 0  9993
2 44793  55.0266 357.3411 0005672 354.5807   3.7039  1.86232408 13807
BEIDOU-3 M22            
1 44794U 19078B   21338.19645231 -.00000074  00000+0  00000+0 0  9991
2 44794  55.0014 357.3341 0003781 343.2492 334.5513  1.86232881 13802
BEIDOU-3 M19            
1 44864U 19090A   21337.85775272  .00000030  00000+0  00000+0 0  9995
2 44864  55.3056 118.1515 0014537 263.0681  22.2215  1.86231849 13381
BEIDOU-3 M20            
1 44865U 19090B   21338.19396630  .00000027  00000+0  00000+0 0  9997
2 44865  55.3080 118.1718 0012657 279.3217 321.2802  1.86231816 13366
BEIDOU-3 G2             
1 45344U 20017A   21338.08347088 -.00000129  00000+0  00000+0 0  9996
2 45344   2.2334 343.1034 0001434 188.1475  11.9924  1.00271152  6652
BEIDOU-3 G3             
1 45807U 20040A   21337.86160565 -.00000338  00000+0  00000+0 0  9996
2 45807   1.8930 299.6048 0010514 343.7037 210.1594  1.00264442  5474
